{"fetched_at":"2026-03-29T16:36:15Z","count":15609,"tles":[{"name":"SAUDICOMSAT 7","line1":"1 31119U 07012C   26087.85044141  .00000881  00000+0  16636-3 0  9996","line2":"2 31119  98.3709  60.3749 0057117  88.2478 272.5265 14.66001565 10666","category":"Other"}]}